{"type":"FeatureCollection","features":[{"type":"Feature","geometry":{"type":"Polygon","coordinates":[[[174.87782721304268,-41.26762778708208],[174.8682141759333,-41.27162750243136],[174.87164740347237,-41.278207146133425],[174.8795438268122,-41.27691707218894],[174.88709692739815,-41.28001320681792],[174.89173178457588,-41.27704608073083],[174.89156012319893,-41.2726596472611],[174.89035849356026,-41.26943414048524],[174.88280539297435,-41.2677568139825],[174.87782721304268,-41.26762778708208]]]},"id":"1_1_2_0","properties":{"acquisition_utc":"2020-07-12 22:27:27","asset_id":"COPERNICUS/S2_SR_HARMONIZED/20200712T222549_20200712T222545_T60GUV","class_id":0,"figure":"Gall et al. 2022, Figure 10A","polygon_id":"hutt_20200713_backgroundTrain_0","processing":"S2_SR_HARMONIZED_SCL_v1","run_tag":"v1","scene_key":"hutt_20200713","source_url":"https://doi.org/10.1080/00288330.2022.2088569","split":"train"}},{"type":"Feature","geometry":{"type":"Polygon","coordinates":[[[174.8721446961471,-41.25568740008632],[174.87399005594935,-41.257881223799124],[174.87544917765345,-41.25917167391612],[174.87759494486536,-41.260462098536706],[174.88038444224085,-41.26165571861081],[174.8839035004684,-41.26165571861081],[174.88360309305875,-41.26049435882554],[174.88171481791224,-41.25920393484238],[174.878968235881,-41.25749408379224],[174.8770799607345,-41.256171338121874],[174.8745050400802,-41.25517119556321],[174.87278842631068,-41.25500988081313],[174.8721446961471,-41.25568740008632]]]},"id":"1_1_1_0","properties":{"acquisition_utc":"2020-07-12 22:27:27","asset_id":"COPERNICUS/S2_SR_HARMONIZED/20200712T222549_20200712T222545_T60GUV","class_id":1,"figure":"Gall et al. 2022, Figure 10A","polygon_id":"hutt_20200713_plumeTrain_0","processing":"S2_SR_HARMONIZED_SCL_v1","run_tag":"v1","scene_key":"hutt_20200713","source_url":"https://doi.org/10.1080/00288330.2022.2088569","split":"train"}}]}